CALSPHERE 1
1 00900U 64063C   26268.92421442  .00000486  00000+0  48416-3 0  9993
2 00900  90.2185  74.1011 0025461 351.6516 162.2998 13.76713610 85280
JB-3 3 (ZY 2C)
1 28470U 04044A   26268.47946303  .00003817  00000+0  17838-3 0  9991
2 28470  97.2900  58.5421 0031667 227.5059 132.3500 15.19936951203017
POISK
1 36086U 09060A   26268.43198945  .00011731  00000+0  21853-3 0  9999
2 36086  51.6316 163.9608 0004776 179.9710 180.1280 15.49288785586969
EXACTVIEW-1 (ADS-1B)
1 38709U 12039C   26268.57802876  .00000077  00000+0  53033-4 0  9990
2 38709  98.9888  28.2893 0009999 239.5130 120.5062 14.25008298737002
SMDC ONE 2.4
1 39469U 13072H   26268.34514978  .00019951  00000+0  68764-3 0  9997
2 39469 120.4897  19.5559 0141850 122.8055 238.6768 15.21060163133057
GONETS-M 13
1 40554U 15020C   26268.89948435  .00000016  00000+0  40924-4 0  9999
2 40554  82.4897 327.9850 0015049 111.7905 248.4777 12.42887140521212
CYGFM07
1 41890U 16078G   26268.44260761  .00041542  00000+0  39766-3 0  9997
2 41890  34.9430 279.4875 0003614 100.8182 259.2952 15.65573899544693
RADFXSAT (FOX-1B)
1 43017U 17073E   26268.57795708  .00010034  00000+0  42505-3 0  9991
2 43017  97.4532 133.7415 0146377 342.2183  17.3955 15.14053388480574
IRIDIUM 160
1 43569U 18061A   26268.87586133  .00000075  00000+0  19829-4 0  9992
2 43569  86.4019  14.6940 0002172  96.2979 263.8464 14.34217635427805
YUNHAI-2 01A
1 43909U 18112A   26268.73162756  .00000040  00000+0  79180-4 0  9991
2 43909  50.0118 337.3934 0000457 204.1724 155.9170 14.29053445405464
STARLINK-1046
1 44751U 19074AQ  26268.45908634  .00061491  00000+0  46474-3 0  9993
2 44751  53.0427 321.6117 0004036  16.7930 343.3220 15.71862828379547
ONEWEB-0045
1 45151U 20008W   26268.72280637  .00000350  00000+0  95083-3 0  9990
2 45151  87.8974   1.0831 0001903  99.4899 260.6444 13.11415390323580
ONEWEB-0037
1 45440U 20020S   26268.71758996  .00000479  00000+0  13160-2 0  9999
2 45440  87.8985   1.0653 0001759 107.3141 252.8180 13.11415718315870
STARLINK-1500
1 45744U 20038Q   26268.86462429  .00029986  00000+0  64573-3 0  9993
2 45744  53.0340 326.7248 0001398 114.1201 245.9950 15.44383960347656
DEKART
1 46493U 20068H   26268.89593686  .00011904  00000+0  30645-3 0  9995
2 46493  97.8738 285.5449 0006663 290.5488  69.5041 15.39386762331253
ONEWEB-0147
1 47293U 20100AM  26268.70435899  .00000474  00000+0  12825-2 0  9991
2 47293  87.8974 330.6934 0001810  92.9722 267.1613 13.12442977277753
STARLINK-2156
1 47742U 21017W   26268.90645812  .00001130  00000+0  48166-4 0  9997
2 47742  53.1618 342.3779 0001220  87.9196 272.1946 15.31711004308713
STARLINK-2371
1 47911U 21021BD  26268.72293733  .00028052  00000+0  87618-3 0  9997
2 47911  53.1582  69.9552 0000974  10.2287 349.8734 15.32994971306562
STARLINK-2459
1 48119U 21027AD  26267.59581641  .00002877  00000+0  10440-3 0  9992
2 48119  53.1601 306.7368 0001132  72.3474 287.7651 15.31710121303158
STARLINK-2516
1 48283U 21036H   26268.91440169  .00001890  00000+0  72657-4 0  9993
2 48283  53.1578 223.5487 0001506  94.8073 265.3101 15.31705509299093
STARLINK-2588
1 48398U 21038AX  26267.96776045  .00030177  00000+0  11715-2 0  9997
2 48398  53.0462 144.7743 0005381  52.5507 307.5980 15.25854021298885
STARLINK-2232
1 48578U 21041AB  26268.89403313 -.00000704  00000+0 -10905-4 0  9996
2 48578  53.1591 275.0217 0001430  78.8460 281.2702 15.31691470295952
ONEWEB-0228
1 48780U 21045P   26268.87113576 -.00000106  00000+0 -31533-3 0  9997
2 48780  87.9008 239.1186 0001953  79.1990 280.9360 13.15547766257562
NINGXIA-1 6
1 49018U 21064A   26268.92192806 -.00000138  00000+0 -37006-5 0  9990
2 49018  44.9994 132.0013 0008385 348.7459  11.3189 14.08546187268415
STARLINK-3056
1 49159U 21082AF  26268.76855460  .00000177  00000+0  22628-4 0  9994
2 49159  69.9994 149.9879 0002919 267.9552  92.1273 14.98331209277044
ONEWEB-0374
1 49300U 21090X   26268.44192036  .00000118  00000+0  28378-3 0  9991
2 49300  87.8905 269.7036 0002445  96.1072 264.0337 13.14503429240731
GLOBAL-14
1 49469U 21106A   26267.71188235  .00035984  00000+0  51658-3 0  9996
2 49469  42.0030  57.5755 0018605 356.1191   3.9508 15.55223629273606
STARLINK-3274
1 50186U 21125AG  26268.74060218 -.00002220  00000+0 -59776-4 0  9998
2 50186  53.1593  66.4391 0001412 142.1201 217.9900 15.31701591266854
STARLINK-3294
1 50829U 22001AC  26268.91670139 -.00002542  00000+0 -61978-4 0  9998
2 50829  53.1603 336.7415 0001302  77.8961 251.8191 15.35401755  5869
STARLINK-3182
1 51469U 22010P   26268.77614837  .00000490  00000+0  25632-4 0  9991
2 51469  53.1609  90.7609 0001250  91.2289 268.8857 15.34389661257151
STARLINK-3459
1 51757U 22016AV  26268.76633289 -.00004333  00000+0 -11710-3 0  9991
2 51757  53.1587 114.7577 0001312  87.9948 272.1205 15.34416319254131
STARLINK-3576
1 51883U 22022AH  26267.95934111  .00000711  00000+0  32197-4 0  9993
2 51883  53.1588 168.5261 0001233  96.6284 263.4859 15.34389749253549
STARLINK-3698
1 52108U 22029W   26267.93308434 -.00000140  00000+0  70971-5 0  9992
2 52108  53.1571 249.0894 0001605  93.4377 266.6808 15.33545974251078
STARLINK-3768
1 52301U 22041AS  26268.57260442  .00000529  00000+0  27422-4 0  9990
2 52301  53.1590 268.3331 0001308  64.2562 295.8575 15.33551369244865
STARLINK-3873
1 52467U 22049S   26268.88852286  .00000500  00000+0  25925-4 0  9993
2 52467  53.1598 228.2615 0001271  88.2897 271.8251 15.34393787242639
STARLINK-4026
1 52600U 22052C   26268.80169271 -.00000026  00000+0  10941-4 0  9999
2 52600  53.1601  87.1034 0001158  90.5587 269.5547 15.31698771242052
STARLINK-4032
1 52688U 22053AJ  26268.91670139  .00082712  00000+0  27630-2 0  9990
2 52688  53.1608 322.2223 0001722  83.3853  84.8038 15.30326142  5858
STARLINK-4266
1 52869U 22062AR  26267.93320096  .00001869  00000+0  66446-4 0  9990
2 52869  53.1595 184.7008 0001378  96.4549 263.6611 15.34404046236348
STARLINK-4355
1 53048U 22077F   26268.48750364 -.00000111  00000+0 -10990-5 0  9997
2 53048  97.2853  84.1664 0001523  89.1756 270.9661 15.33436475231112
STARLINK-4292
1 53175U 22083AV  26268.54212246  .00001636  00000+0  59562-4 0  9992
2 53175  53.1591 345.8079 0000962  76.7217 283.3893 15.34391446231530
STARLINK-4051
1 53273U 22086AH  26268.51179112  .00000495  00000+0  25783-4 0  9995
2 53273  53.1613 350.6480 0001123  80.7263 279.3866 15.34401025231585
STARLINK-4415
1 53465U 22099A   26268.87411687  .00001963  00000+0  63128-4 0  9993
2 53465  97.2866  26.3945 0000933 101.6859 258.4489 15.33441719226353
STARLINK-4550
1 53570U 22101AV  26268.41988747  .00005103  00000+0  16638-3 0  9993
2 53570  53.1599 220.9621 0001607  62.7616 297.3550 15.33553469227510
STARLINK-4621
1 53676U 22105AE  26268.66621007  .00004642  00000+0  32543-3 0  9994
2 53676  97.2848 142.1979 0002077  78.7924 281.3537 15.05648998223329
STARLINK-4728
1 53793U 22111W   26268.87482012 -.00000271  00000+0  30319-5 0  9991
2 53793  53.1595  80.9966 0001353  78.9324 281.1829 15.31695999224107
STARLINK-5045
1 53900U 22119Q   26267.94129604  .00001440  00000+0  53743-4 0  9994
2 53900  53.1623 142.7358 0001189  89.8366 270.2773 15.34395751221857
ASO-S
1 54029U 22129A   26268.99599439  .00000130  00000+0  43098-4 0  9998
2 54029  98.2801 272.6594 0015087 139.2217 221.0110 14.52098753210050
ONEWEB-0520
1 54138U 22138AB  26268.43547140  .00000084  00000+0  17786-3 0  9992
2 54138  87.9104 284.9940 0001853  84.3481 275.7863 13.19726092190045
COSMOS 2565
1 54381U 22163A   26268.97823948 -.00000075  00000+0  43596-6 0  9994
2 54381  67.1481 222.2848 0006628 266.0895  93.9432 13.96675537194844
STARLINK-5450
1 54778U 22175W   26267.95278346  .00001023  00000+0  41437-4 0  9993
2 54778  53.1597 199.0234 0001457  92.8236 267.2933 15.34385672210423
EROS C3
1 54880U 22179A   26268.67420041  .00004327  00000+0  23636-3 0  9992
2 54880 139.3346 219.0927 0008702 308.4295  51.5732 15.11473406207536
STARLINK-5260
1 55275U 23010G   26268.21691645  .00002376  00000+0  20683-3 0  9997
2 55275  69.9994 241.4878 0003552 268.2640  91.8112 14.98335008203164
STARLINK-5654
1 55366U 23013AM  26268.62524672 -.00000669  00000+0 -14799-4 0  9998
2 55366  43.0042 239.3352 0000924 271.2316  88.8430 15.27574694202425
STARLINK-5674
1 55465U 23015S   26268.37796940  .00016996  00000+0  62511-3 0  9993
2 55465  43.0030 280.8310 0001541 277.2906  82.7770 15.27612836201266
STARLINK-5710
1 55616U 23020AZ  26268.78634412  .00000458  00000+0  26166-4 0  9990
2 55616  43.0020 304.0089 0001213 271.2655  88.8057 15.27577229199645
STARLINK-5584
1 55769U 23028AE  26268.91586915 -.00000180  00000+0 -73304-5 0  9997
2 55769  69.9987  79.6727 0002946 268.5038  91.5784 14.98333096196526
STARLINK-5922
1 55925U 23037M   26268.73320070 -.00001071  00000+0 -81989-4 0  9996
2 55925  69.9996 160.0007 0002922 270.2791  89.8033 14.98326460193459
STARLINK-5912
1 56020U 23042AL  26268.58007441  .00000733  00000+0  36160-4 0  9999
2 56020  43.0045 356.5666 0001784 272.5366  87.5281 15.27577319193606
STARLINK-6114
1 56116U 23046Z   26268.88356269 -.00000862  00000+0 -21794-4 0  9999
2 56116  43.0035 111.3820 0001652 263.5908  96.4756 15.27570628192641
TELEOS-2
1 56310U 23057C   26268.93272289  .00005339  00000+0  39880-3 0  9998
2 56310   9.9877 190.6310 0000867 262.5462  97.4653 14.96437152187917
STARLINK-6281
1 56410U 23061AN  26268.93153470  .00000019  00000+0  10221-4 0  9993
2 56410  43.0025 135.7743 0001006 247.9784 112.0961 15.27577230187500
STARLINK-5339
1 56510U 23065H   26268.44502185  .00000668  00000+0  33818-4 0  9992
2 56510  43.0031 164.0423 0001681 273.0465  87.0194 15.27581469187152
ONEWEB-0683
1 56719U 23068K   26268.90742893  .00000151  00000+0  36825-3 0  9996
2 56719  87.9004 239.1186 0001838  87.5950 272.5391 13.15548845162666
STARLINK-30142
1 56836U 23079P   26267.51256456 -.00010494  00000+0 -37192-3 0  9990
2 56836  43.0027  60.9695 0001782 289.3250  70.7409 15.27617665183339
NUSAT-42 (M WONENBURGER)
1 56966U 23084AL  26268.91965106  .00027421  00000+0  50192-3 0  9995
2 56966  97.5839  57.7156 0004500 241.0344 119.0455 15.49307418183653
STARLINK-6150
1 57119U 23090U   26268.92755599  .00001536  00000+0  65320-4 0  9996
2 57119  43.0007 230.9280 0000451 252.6430 107.4372 15.27570465180954
STARLINK-5520
1 57219U 23094B   26268.55827607  .00001169  00000+0  52007-4 0  9990
2 57219  43.0035 345.3066 0001783 275.5750  84.4898 15.27583054177644
STARLINK-6331
1 57351U 23099Z   26268.53282606  .00000837  00000+0  39936-4 0  9991
2 57351  43.0039 200.0610 0001352 280.3977  79.6722 15.27579312176681
STARLINK-30077
1 57460U 23107D   26268.39498773  .00000455  00000+0  26068-4 0  9998
2 57460  43.0026 287.9199 0001331 266.2674  93.8025 15.27578027175694
HEAD-3E
1 57630U 23121E   26268.95755993  .00000645  00000+0  15288-3 0  9997
2 57630  45.0008 149.5687 0007727  63.8930 296.2723 14.63998785166657
STARLINK-30308
1 57742U 23131L   26268.29749451  .00001032  00000+0  47002-4 0  9992
2 57742  42.9955 125.1991 0000818 266.9314  93.1444 15.27581133170455
STARLINK-30410
1 57841U 23141B   26268.71888165  .00000631  00000+0  32101-4 0  9994
2 57841  53.1611  73.3757 0001337  86.3673 273.7481 15.31701365170971
STARLINK-30488
1 57931U 23147U   26267.44334141  .00001169  00000+0  52018-4 0  9995
2 57931  43.0033 286.2523 0001218 271.0350  89.0363 15.27578535166985
PVCC
1 58025U 23155K   26268.95920954  .00006713  00000+0  34345-3 0  9991
2 58025  97.5634 345.2537 0005237 132.1061 228.0618 15.16955052163259
STARLINK-30611
1 58108U 23161M   26267.52223553  .00001323  00000+0  50299-4 0  9992
2 58108  53.1598 304.7390 0001089  79.0011 281.1115 15.34395674165106
STARLINK-30785
1 58191U 23167S   26268.90373201 -.00000103  00000+0  57901-5 0  9993
2 58191  43.0039  92.8298 0001233 281.8636  78.2077 15.27577729161603
FLOCK 4Q-13
1 58328U 23174CA  26268.07069112  .00036861  00000+0  52659-3 0  9996
2 58328  97.3986   2.1130 0006343 136.8911 223.2841 15.56147517161183
STARLINK-30869
1 58437U 23183A   26267.33560644  .00021180  00000+0  77660-3 0  9998
2 58437  43.0012 359.8548 0001606 251.1396 108.9282 15.27595492157115
STARLINK-31012
1 58531U 23192A   26267.25628916  .00001798  00000+0  64316-4 0  9999
2 58531  53.1586 217.8094 0001388  95.1567 264.9594 15.34405543156427
SHIYAN-24C 03
1 58652U 23206C   26268.72129747  .00002397  00000+0  20746-3 0  9994
2 58652  97.7429 231.7915 0005054 104.5717 255.6066 14.98094075150354
YUNYAO-1 18
1 58758U 24009A   26268.78565042  .00017421  00000+0  68889-3 0  9995
2 58758  50.0161  17.7687 0005967 303.4802  56.5583 15.25492833150191
STARLINK-31197
1 58859U 24019G   26268.86755121 -.00001151  00000+0 -32305-4 0  9996
2 58859  43.0042 198.7170 0001154 268.9599  91.1120 15.27569242149698
HBTSS-SV2
1 58955U 24028A   26268.80273816  .00000055  00000+0  14897-3 0  9998
2 58955  39.9917 301.6312 0017717  96.8135 263.4628 13.70489844130871
SITRO-AIS 25
1 59066U 24039R   26268.92420637  .00003603  00000+0  27874-3 0  9993
2 59066  95.3805 304.2823 0142148 336.4120  23.0628 14.94094355139760
STARLINK-31340
1 59170U 24044U   26268.57995217  .00000242  00000+0  18320-4 0  9990
2 59170  43.0037  18.5994 0001393 265.3366  94.7327 15.27579247144598
STARLINK-31506
1 59259U 24050F   26268.89450558  .00002086  00000+0  72877-4 0  9999
2 59259  53.1612 330.1568 0001426  91.5221 268.5945 15.34398041141215
STARLINK-31557
1 59357U 24060K   26268.86267249 -.00000008  00000+0  92122-5 0  9998
2 59357  43.0012 205.2898 0000749 265.0737  95.0029 15.27576494140724
STARLINK-31708
1 59439U 24065U   26268.88110064  .00008185  00000+0  25292-3 0  9993
2 59439  53.1583  68.6808 0000946  93.1107 267.0004 15.34424534139628
STARLINK-31738
1 59535U 24074B   26267.43815211  .00000209  00000+0  17127-4 0  9994
2 59535  43.0018 297.2710 0001237 260.0670 100.0042 15.27577685136456
STARLINK-31791
1 59637U 24082G   26268.89643245  .00000700  00000+0  34937-4 0  9997
2 59637  43.0032  88.9169 0000918 297.2660  62.8098 15.27582596135434
STARLINK-31766
1 59723U 24088R   26268.33106775  .00000719  00000+0  32407-4 0  9990
2 59723  53.1570 290.7911 0001391  86.5943 273.5218 15.34394285134276
2024-094A
1 59805U 24094A   26268.97238433  .00005281  00000+0  27065-3 0  9997
2 59805  97.3782 337.1345 0001783 155.6221 204.5097 15.16988403130446
TIANQI-28
1 59912U 24102D   26268.88420487  .00000100  00000+0  15683-3 0  9996
2 59912  44.9779 173.5944 0012596   2.9540 357.1365 13.99194197119008
STARLINK-11155 [DTC]
1 60046U 24112J   26268.55378515 -.00000367  00000+0  18297-5 0  9997
2 60046  53.1593   0.8875 0000960  84.0541 276.0586 15.69690981132373
STARLINK-32050
1 60137U 24120C   26268.73533383 -.00000114  00000+0  77530-5 0  9998
2 60137  53.1589 107.2218 0001432  69.9085 290.2072 15.34386508127058
STARLINK-32135
1 60277U 24131Y   26267.26462984 -.00000058  00000+0  94221-5 0  9993
2 60277  53.1598 207.7737 0001267  78.9974 281.1172 15.34392577122157
STARLINK-32188
1 60365U 24138L   26268.79494667 -.00001053  00000+0 -22171-4 0  9991
2 60365  53.1595  98.7837 0001592 101.0949 259.0232 15.31692445121280
LEGION 4
1 60453U 24146B   26268.49663304  .00002025  00000+0  11842-3 0  9991
2 60453  45.0032 304.5882 0007441 156.2236 203.8988 15.15603823116094
UMBRA-10
1 60547U 24149CH  26268.75972076  .00018802  00000+0  85450-3 0  9992
2 60547  97.6951 357.9103 0000777  54.9323 305.1985 15.20805045116005
STARLINK-11265 [DTC]
1 60909U 24154G   26267.61961523  .00000221  00000+0  66850-5 0  9990
2 60909  53.1597 230.9737 0001140  93.4546 266.6602 15.69709210119755
STARLINK-11252 [DTC]
1 61051U 24164B   26268.63828122 -.00002346  00000+0 -14517-4 0  9994
2 61051  53.1599  45.5548 0001189  32.2151 327.8940 15.69696563116828
STARLINK-32431
1 61256U 24175P   26268.48912280 -.00000355  00000+0  63724-6 0  9998
2 61256  53.1622 342.4575 0001206  76.7643 283.3494 15.34384674112094
STARLINK-11373 [DTC]
1 61582U 24187J   26268.59545578 -.00000274  00000+0  26093-5 0  9994
2 61582  53.1583  31.0895 0002289 170.7570 189.3490 15.69707402112147
STARLINK-32309
1 61676U 24193R   26267.34375541 -.00000096  00000+0  82877-5 0  9992
2 61676  53.1594 243.8675 0001161  84.5740 275.5395 15.34389298107003
SIT-2086
1 61764U 24199AF  26268.86254066  .00054534  00000+0  65865-3 0  9993
2 61764  97.2736 147.2661 0003334 227.3044 132.7933 15.60566628150090
2024-205L
1 61904U 24205L   26268.91465160  .00006102  00000+0  36947-3 0  9999
2 61904  97.4049 335.8544 0066161  21.3068 339.0892 15.09107917103386
STARLINK-11363 [DTC]
1 62012U 24213E   26268.91498810  .00149543  00000+0  12172-2 0  9997
2 62012  53.1571 134.1566 0003244  17.5545 342.5584 15.69703191106360
STARLINK-11386 [DTC]
1 62098U 24220L   26267.42743012  .00259154  00000+0  19562-2 0  9991
2 62098  42.9988 284.7742 0001298 269.9033  90.1686 15.70895991106217
STARLINK-32584
1 62179U 24225S   26268.91670139 -.00016835  00000+0 -10785-2 0  9997
2 62179  69.9996  19.4311 0002301 271.8955 323.5795 15.08317602  5773
STARLINK-11479 [DTC]
1 62270U 24237D   26268.09811381  .00248172  00000+0  18626-2 0  9998
2 62270  42.9927 294.6705 0001934 273.5494  86.5152 15.71065957104419
ICEYE-X47
1 62389U 24247N   26267.14188567  .00002086  00000+0  12716-3 0  9995
2 62389  44.9976 188.2002 0000928  91.6842 268.4142 15.13934046 97176
STARLINK-32753
1 62481U 24254V   26267.18618414  .00013119  00000+0  48490-3 0  9996
2 62481  43.0052 335.0901 0001292 280.2029  79.8677 15.27613820 98012
CENTISPACE-1 S15
1 62584U 25007K   26268.83343731 -.00000049  00000+0  86613-4 0  9996
2 62584  54.9867 300.6607 0011635 273.2274  86.7352 13.80585558 88635
TRANSPORTER-12 OBJECT BR
1 62672U 25009BR  26268.73427462  .00003811  00000+0  16217-3 0  9990
2 62672  97.3889 346.3107 0004267   1.9450 358.1803 15.23601705151691
STARLINK-33592
1 62765U 25015H   26268.75474060  .00038274  00000+0  11373-2 0  9996
2 62765  53.1583 108.8017 0001729 144.3976 215.7142 15.34422433 95042
STARLINK-32804
1 62846U 25019T   26267.68100959  .00014612  00000+0  53919-3 0  9997
2 62846  42.9986  45.2205 0001065 266.1657  93.9073 15.27596354 92682
KINEIS-2A
1 62932U 25028E   26268.86872506  .00000973  00000+0  15735-3 0  9997
2 62932  98.1201 324.3940 0004325 189.3660 170.7468 14.73585879 87439
STARLINK-32926
1 63025U 25032W   26268.77319041  .00015620  00000+0  57535-3 0  9995
2 63025  43.0013 285.7781 0000996 264.2108  95.8630 15.27614763 91221
STARLINK-11601 [DTC]
1 63110U 25039G   26268.83730211  .00173679  00000+0  13122-2 0  9992
2 63110  42.9996 110.4076 0003819 245.2813 114.7657 15.71136542 91092
STARLINK-32904
1 63198U 25048R   26268.62500933  .00018349  00000+0  67425-3 0  9999
2 63198  43.0032  35.8420 0001586 271.3828  88.6842 15.27599835 87672
STARLINK-33646
1 63280U 25053R   26267.25295841  .00018265  00000+0  67096-3 0  9995
2 63280  42.9994 200.1768 0001415 270.9089  89.1601 15.27612501 86568
STARLINK-33634
1 63377U 25063Q   26267.97270840  .00025874  00000+0  77406-3 0  9994
2 63377  53.1574 204.4661 0001595  91.7186 268.4000 15.34408734 85303
STARLINK-33685
1 63465U 25070F   26268.89565357  .00017489  00000+0  64325-3 0  9991
2 63465  43.0026 209.2903 0001776 252.3689 107.6969 15.27594996 83592
STARLINK-33732
1 63575U 25076G   26267.10456189  .00018008  00000+0  66165-3 0  9996
2 63575  43.0020 281.3107 0001626 282.1278  77.9391 15.27613826 82179
STARLINK-33847
1 63685U 25085X   26268.53701221  .00016450  00000+0  60528-3 0  9992
2 63685  43.0093 342.3169 0003578 303.5134  56.5375 15.27614388 79438
STARLINK-11660 [DTC]
1 63761U 25089L   26267.16985317  .00415932  00000+0  31029-2 0  9990
2 63761  43.0000 175.6599 0001068 337.2452  22.8368 15.70704019 81300
STARLINK-33990
1 63840U 25093E   26268.64773432  .00027779  00000+0  10139-2 0  9997
2 63840  43.0053  28.5927 0003367 286.6545  73.3937 15.27616878 78330
YAOGAN-40 02B
1 63919U 25096B   26268.94809580  .00000140  00000+0  65677-4 0  9996
2 63919  85.9957 142.8151 0001754  88.6665 271.4719 14.12463006 70792
STARLINK-33898
1 64002U 25101J   26267.47954922  .00014233  00000+0  52554-3 0  9992
2 64002  43.0001 315.6469 0001432 288.5896  71.4800 15.27593580 77450
STARLINK-34126
1 64083U 25107V   26268.94136104  .00025635  00000+0  93653-3 0  9997
2 64083  43.0014 150.8678 0001408 260.3511  99.7182 15.27626519 75654
STARLINK-34317
1 64162U 25112S   26268.87816205  .00019536  00000+0  60565-3 0  9999
2 64162  97.2851 315.8956 0000432  91.9233 268.2059 15.33458681 73574
STARLINK-11704 [DTC]
1 64245U 25119N   26268.88943308  .00175563  00000+0  13422-2 0  9996
2 64245  42.9989  82.1310 0001750 253.5821 106.4854 15.70853266 76732
STARLINK-11696 [DTC]
1 64324U 25124H   26268.70137015  .00225282  00000+0  16930-2 0  9992
2 64324  42.9983 263.3755 0002662  45.0812 315.0271 15.71104097 74299
STARLINK-34434
1 64422U 25129L   26268.48038455  .00017594  00000+0  61456-3 0  9998
2 64422  69.9984 287.9375 0003846 270.0211  90.0523 15.29604349 71279
KUIPER-00046
1 64506U 25134G   26268.84544328  .00001258  00000+0  19403-3 0  9993
2 64506  51.8978  77.9296 0000652 107.9879 252.1155 14.79921746 69573
IRIDE-MS2-HEO-9
1 64585U 25135BK  26268.89605043  .00001261  00000+0  13000-3 0  9999
2 64585  97.7846  22.1323 0002003  69.6155 290.5279 14.91971623 68912
STARLINK-34405
1 64704U 25142J   26267.87386289  .00018623  00000+0  65030-3 0  9995
2 64704  70.0022 169.5738 0002628 273.3210  86.7664 15.29599490 69396
STARLINK-34632
1 64792U 25150C   26268.62499401  .00006732  00000+0  57123-3 0  9998
2 64792  70.0033 350.2917 0003393 295.9221  64.1588 14.98344472 66468
SKYCRAFT-4B
1 64872U 25154D   26268.89350161  .00005722  00000+0  48167-3 0  9995
2 64872  97.6558 331.6875 0004171 285.0070  75.0691 14.98609043 64122
STARLINK-34630
1 64948U 25158S   26268.61055626  .00020075  00000+0  62218-3 0  9992
2 64948  97.2834 126.7610 0000986  77.2065 282.9287 15.33461542 65484
STARLINK-34247
1 65083U 25167F   26267.96307249  .00027654  00000+0  82608-3 0  9996
2 65083  53.1582 176.5483 0001669 131.7248 228.3897 15.34418683 64057
HULIANWANG DIGUI-65
1 65171U 25174H   26268.88205703  .00000039  00000+0  57392-4 0  9997
2 65171  86.4917 217.7396 0002268  75.1170 285.0215 13.24400206 54117
STARLINK-34925
1 65249U 25179Q   26268.66125870  .00018737  00000+0  58107-3 0  9998
2 65249  97.2805 307.9139 0001747 181.7840 178.3397 15.33454422 62109
STARLINK-34878
1 65334U 25189M   26268.54601477  .00020159  00000+0  65902-3 0  9995
2 65334  53.1610 357.1654 0001307  92.6785 267.4366 15.31729855 61724
STARLINK-35024
1 65410U 25192G   26268.58970644  .00030458  00000+0  98805-3 0  9994
2 65410  53.1612  22.1471 0001470  33.0609 327.0484 15.31739706 60013
STARLINK-35226
1 65492U 25198A   26268.72914432  .00032168  00000+0  95862-3 0  9999
2 65492  53.1592  57.1136 0001184 106.1144 253.9990 15.34416452 59317
PRAETORIAN SDA_612
1 65575U 25203L   26268.53127472  .00000148  00000+0  12040-3 0  9997
2 65575  81.2991 277.4573 0008129 281.2245  78.7998 13.85040415 52601
STARLINK-35220
1 65661U 25211K   26268.64913967  .00021525  00000+0  66679-3 0  9995
2 65661  97.2794 308.8260 0001507 177.3436 182.7815 15.33463070 57315
STARLINK-35294
1 65755U 25216X   26267.87867364  .00019871  00000+0  59739-3 0  9997
2 65755  53.1577 125.3097 0001118 115.2449 244.8670 15.34415244 57075
STARLINK-35324
1 65838U 25221R   26268.93427823  .00019915  00000+0  59894-3 0  9996
2 65838  53.1617 235.9677 0001071 312.4216  47.6696 15.34402074 55426
STARLINK-35521
1 65916U 25225G   26268.44741168  .00022912  00000+0  68634-3 0  9997
2 65916  53.1611 314.8626 0001262  80.1176 279.9969 15.34438915 55037
HULIANWANG DIGUI-90
1 65998U 25231D   26268.43773178 -.00000096  00000+0  59973-4 0  9996
2 65998  49.9986 176.0970 0000527  78.0240 282.0691 13.29329780 46225
STARLINK-35402
1 66079U 25235X   26268.59661842  .00021080  00000+0  63287-3 0  9999
2 66079  53.1604  35.6218 0001825  62.1299 297.9888 15.34419706 53547
STARLINK-35586
1 66159U 25240P   26268.86952685  .00038432  00000+0  11419-2 0  9990
2 66159  53.1586 208.9684 0001466 328.2298  31.8616 15.34423967 52696
STARLINK-35554
1 66239U 25245F   26268.88637712  .00027909  00000+0  90748-3 0  9997
2 66239  53.1571  72.8628 0000722  90.2419 269.8665 15.31709797 51769
STARLINK-35506
1 66324U 25253F   26267.10653392  .00020435  00000+0  74985-3 0  9999
2 66324  43.0012 171.6148 0000872 261.4730  98.6023 15.27589649 50594
STARLINK-35602
1 66403U 25257Z   26268.59432297  .00022437  00000+0  67287-3 0  9995
2 66403  53.1610   3.9557 0002361  42.4452 317.6733 15.34414323 50408
STARLINK-34844
1 66486U 25263B   26268.38806551  .00016918  00000+0  62253-3 0  9993
2 66486  42.9970 302.6081 0000358 176.8138 183.2716 15.27598514 49393
STARLINK-35834
1 66570U 25268P   26268.11171420  .00012434  00000+0  46034-3 0  9991
2 66570  43.0002 301.2792 0001088 268.5923  91.4804 15.27598735 48450
2025-274B
1 66651U 25274B   26268.75509172  .00002683  00000+0  25898-3 0  9997
2 66651  97.7481 196.4196 0012687  24.7981 335.3846 14.93651499 45229
FLOCK 4H-30
1 66733U 25276BV  26268.91424573  .00006615  00000+0  30170-3 0  9997
2 66733  97.4156 340.9055 0004790  38.1505 322.0069 15.20953227 45723
STARLINK-36054
1 66812U 25278X   26268.73810519  .00017415  00000+0  64062-3 0  9993
2 66812  42.9991  64.6176 0001397 274.2868  85.7824 15.27593617 45803
STARLINK-35852
1 66889U 25283M   26268.12853609  .00029328  00000+0  87446-3 0  9990
2 66889  53.1595 173.9323 0000630 111.7346 248.3724 15.34446081 46430
STARLINK-35778
1 66973U 25288Q   26268.52630257  .00027861  00000+0  10175-2 0  9999
2 66973  43.0016 334.5576 0000805 277.2133  82.8627 15.27601160 45852
STARLINK-35754
1 67054U 25294AA  26268.53479269  .00017514  00000+0  64398-3 0  9993
2 67054  43.0027 349.3914 0001460 270.5033  89.5652 15.27603457 45367
KUIPER-00175
1 67135U 25301C   26268.90115384  .00000495  00000+0  93978-4 0  9995
2 67135  51.9005 245.2431 0000721  46.7960 313.3063 14.79933675 43669
STARLINK-36203
1 67214U 25304Y   26268.72562581  .00005784  00000+0  49186-3 0  9998
2 67214  70.0022  30.2680 0003372 277.5307  82.5469 14.98348996 43842
STARLINK-36449
1 67308U 26002D   26268.73745134  .00020214  00000+0  74184-3 0  9997
2 67308  43.0010 275.5024 0002034 267.9449  92.1169 15.27589235 41739
CAPELLA-19 (ACADIA-9)
1 67384U 26004X   26268.75558960  .00003719  00000+0  42489-3 0  9998
2 67384  97.7997 265.3299 0001453  87.8279 272.3103 14.86644093 38215
STARLINK-36505
1 67463U 26008U   26268.38187069  .00014834  00000+0  54722-3 0  9990
2 67463  42.9979 157.3657 0000713 355.6701   4.4145 15.27596874 40118
STARLINK-36567
1 67552U 26014W   26268.66957663  .00020692  00000+0  64108-3 0  9990
2 67552  97.2850 154.0087 0001836  93.0777 267.0676 15.33465770 39427
STARLINK-36627
1 67635U 26020U   26268.89387256  .00017442  00000+0  64114-3 0  9995
2 67635  43.0081  89.0078 0003651 258.5894 101.4547 15.27614111 36733
STARLINK-36385
1 67717U 26025AA  26268.75509060  .00029634  00000+0  91593-3 0  9992
2 67717  97.2901  18.6258 0000996 117.2093 242.9252 15.33470502 36673
STARLINK-36811
1 67808U 26032M   26268.50549344  .00019547  00000+0  60598-3 0  9996
2 67808  97.2838  94.8618 0001066  73.8665 286.2695 15.33458475 35586
STARLINK-36842
1 67884U 26035F   26268.75290906  .00021810  00000+0  67620-3 0  9996
2 67884  97.2863 200.4620 0001316  99.7407 260.3984 15.33433281 34643
STARLINK-36912
1 67961U 26038A   26268.75076006  .00016333  00000+0  50811-3 0  9996
2 67961  97.2831 276.9483 0003660  95.8058 264.3602 15.33378768 33897
STARLINK-36388
1 68037U 26040Y   26268.73809617  .00010129  00000+0  31606-3 0  9992
2 68037  97.2865 216.0502 0001996 128.3003 231.8420 15.33403434 32129
STARLINK-36392
1 68115U 26044Q   26268.42855924  .00029535  00000+0  91317-3 0  9997
2 68115  97.2872 227.3175 0001126  94.2816 265.8555 15.33460330 32194
2026-052A
1 68198U 26052A   26268.72929011  .00005725  00000+0  33705-3 0  9991
2 68198  97.5258 341.9982 0011987 326.7180  33.3295 15.11954738 29234
STARLINK-37125
1 68276U 26055Q   26268.73269700  .00028731  00000+0  85793-3 0  9990
2 68276  53.1581 105.4549 0001424  80.6941 279.4222 15.34410241 30625
CENTISPACE-2 S7
1 68356U 26060G   26266.58724125 -.00000215  00000+0 -25570-4 0  9990
2 68356  54.9900  14.0348 0008398 281.2679  78.7353 14.23353520 26986
TRANSPORTER-16 OBJECT Z
1 68439U 26067Z   26268.13070889  .00016232  00000+0  71299-3 0  9995
2 68439  97.4606 225.5683 0004761  80.2181 279.9593 15.21991081 27137
STARLINK-36290
1 68516U 26068J   26267.04036868  .00014625  00000+0  44319-3 0  9997
2 68516  53.1585 282.9509 0001264  82.6367 277.4779 15.34396150 27385
KUIPER-00304
1 68599U 26072AC  26268.74824017  .00001805  00000+0  28639-3 0  9995
2 68599  51.8995  72.5928 0000767  45.1699 314.9324 14.76627041 26544
STARLINK-37122
1 68678U 26077S   26268.64905106  .00018919  00000+0  58602-3 0  9993
2 68678  97.2840 138.4935 0007774 136.7220 223.4635 15.33463415 25801
COSMOS 2611
1 68759U 26083G   26268.91644987  .00001793  00000+0  12545-3 0  9995
2 68759  97.8264  47.7694 0012743  81.0529 279.2140 15.06543477 24353
STARLINK-37495
1 68841U 26094C   26268.58740810  .00016169  00000+0  50196-3 0  9991
2 68841  97.2786 281.5853 0003124  52.9208 307.2320 15.33448503 23431
KUIPER-00370
1 68919U 26098A   26268.45222695  .00000073  00000+0  38601-4 0  9998
2 68919  51.9013 334.6544 0000297  61.4588 298.6404 14.79928295 22332
ICEYE-X78
1 68995U 26100R   26268.68450411  .00000676  00000+0  72349-4 0  9996
2 68995  97.7226 164.2085 0003295 127.7171 232.4347 14.91911121 21685
2026-106C
1 69099U 26106C   26267.69909172  .00005095  00000+0  33260-3 0  9999
2 69099  97.5572 348.1013 0007412 174.3858 185.7455 15.08264632 20015
STARLINK-37380
1 69182U 26114A   26268.72524136  .00022085  00000+0  66263-3 0  9996
2 69182  53.1568  89.6377 0001799 145.2744 214.8376 15.34409804 20246
STARLINK-37478
1 69260U 26117Y   26268.77753166  .00017037  00000+0  51406-3 0  9992
2 69260  53.1584 129.3361 0001491 110.8649 249.2514 15.34409424 18473
STARLINK-37788
1 69338U 26122K   26268.62696124  .00015672  00000+0  48667-3 0  9996
2 69338  97.2809 297.1499 0001970  65.3718 294.7730 15.33450468 17586
QIANFAN-197
1 69415U 26125Q   26268.93138468  .00000031  00000+0  29483-4 0  9990
2 69415  88.9878 269.7147 0002141  99.0015 261.1379 13.51023979 15569
STARLINK-37853
1 69498U 26131W   26268.60538959  .00022222  00000+0  68829-3 0  9993
2 69498  97.2819 292.3483 0001760 157.6925 202.4395 15.33460724 16618
HULIANWANG DIGUI-175
1 69578U 26137G   26268.92981697 -.00000110  00000+0  30529-4 0  9994
2 69578  49.9962 234.3474 0000346  18.7062 341.3823 13.29327999 13743
STARLINK-38005
1 69677U 26145A   26268.55573749  .00014991  00000+0  46558-3 0  9996
2 69677  97.2849 115.0838 0002022  96.0165 264.1308 15.33455011 14316
KUIPER-00558
1 69765U 26151C   26268.56748970  .00002080  00000+0  30172-3 0  9993
2 69765  51.8979 211.7764 0000696  95.6257 264.4785 14.79931532 12853
STARLINK-37584
1 69844U 26154AB  26268.81188372  .00026130  00000+0  78099-3 0  9998
2 69844  53.1590 306.8632 0002221 254.4941 105.5816 15.34431574 14053
TRANSPORTER-17 OBJECT BE
1 69921U 26156BE  26268.68243690  .00004175  00000+0  41405-3 0  9992
2 69921  97.7462 167.8389 0005043 249.1100 110.9580 14.92304485 11988
LCS 1
1 01361U 65034C   26267.53388050  .00000013  00000+0  59594-3 0  9992
2 01361  32.1432 301.1485 0011045 115.3171 244.8472  9.89310826219728
LAGEOS 2
1 22195U 92070B   26267.22272412 -.00000009  00000+0  00000+0 0  9990
2 22195  52.6446 204.0620 0138122 230.6455 280.4693  6.47293863801834
NAVSTAR 49 (USA 154)
1 26605U 00071A   26268.36596877  .00000056  00000+0  00000+0 0  9991
2 26605  55.6873  90.9981 0174690 267.0909 275.4529  2.00561104189529
NAVSTAR 54 (USA 177)
1 28190U 04009A   26268.11131648  .00000016  00000+0  00000+0 0  9997
2 28190  54.7536 271.6409 0118223 176.8106 185.5493  2.00573295164950
NAVSTAR 58 (USA 190)
1 29486U 06042A   26268.44616839  .00000048  00000+0  00000+0 0  9996
2 29486  54.7164 147.3559 0109102  57.5302 116.1859  2.00564839146400
COSMOS 2434 [GLONASS-M]
1 32393U 07065A   26266.86923402 -.00000002  00000+0  00000+0 0  9995
2 32393  64.3187 188.5895 0001907  44.8817 158.6061  2.13101440145872
NAVSTAR 64 (USA 206)
1 35752U 09043A   26267.84853093 -.00000069  00000+0  00000+0 0  9995
2 35752  56.2680  23.5459 0051140  86.3346 280.9214  2.00576364125366
NAVSTAR 66 (USA 232)
1 37753U 11036A   26268.07684089 -.00000052  00000+0  00000+0 0  9998
2 37753  56.5107 328.1296 0140547  63.0300 293.0888  2.00561051111275
COSMOS 2477 [GLONASS-M]
1 37868U 11064B   26267.64268728  .00000043  00000+0  00000+0 0  9995
2 37868  65.3381  69.5973 0019735 230.3781  93.5288  2.13103004115879
NAVSTAR 67 (USA 239)
1 38833U 12053A   26268.53036696  .00000054  00000+0  00000+0 0  9995
2 38833  53.5989 139.4850 0186242  67.6369 294.4300  2.00557429101453
O3B FM5
1 39188U 13031A   26267.98523014 -.00000017  00000+0  00000+0 0  9999
2 39188   0.0786 315.2046 0002433 215.6497 189.1543  5.00115671242037
NAVSTAR 69 (USA 248)
1 39533U 14008A   26267.90041160  .00000044  00000+0  00000+0 0  9996
2 39533  53.6642 145.2497 0083577 231.5388 127.8006  2.00566327 91682
O3B FM7
1 40080U 14038B   26268.59685975 -.00000016  00000+0  00000+0 0  9992
2 40080   0.0415 350.8992 0002763 152.1908 216.9336  5.00115827222896
GSAT0201 (GALILEO 5)
1 40128U 14050A   26261.66135895  .00000005  00000+0  00000+0 0  9998
2 40128  48.7780 269.5934 1687124 183.0003 175.8597  1.85519745 80053
O3B FM11
1 40349U 14083B   26268.71699217 -.00000016  00000+0  00000+0 0  9998
2 40349   0.0534 348.2295 0002158 181.7589 190.0205  5.00115538214936
GSAT0203 (GALILEO 7)
1 40544U 15017A   26264.99894767 -.00000080  00000+0  00000+0 0  9997
2 40544  56.7471 338.9565 0005184 256.0270 103.9736  1.70476324 70851
GSAT0206 (GALILEO 10)
1 40890U 15045B   26259.96432677  .00000017  00000+0  00000+0 0  9990
2 40890  54.9240 219.0714 0002624 353.2075   6.7586  1.70473245 68605
NAVSTAR 76 (USA 266)
1 41328U 16007A   26268.57913091  .00000048  00000+0  00000+0 0  9991
2 41328  55.5934  85.4801 0097944 247.2912 111.7244  2.00572120 77853
GSAT0212 (GALILEO 16)
1 41860U 16069B   26266.73195248  .00000054  00000+0  00000+0 0  9999
2 41860  55.5604  98.3528 0003801  43.6624 316.4544  1.70474116 61339
BEIDOU-3 M1
1 43001U 17069A   26267.46976237  .00000003  00000+0  00000+0 0  9999
2 43001  56.7829  59.8207 0007088 320.0864  39.8776  1.86231384 60455
GSAT0218 (GALILEO 22)
1 43058U 17079D   26266.70664499  .00000010  00000+0  00000+0 0  9990
2 43058  55.0491 218.7927 0004775 287.2283  72.6819  1.70473905 54690
BEIDOU-3 M3
1 43208U 18018B   26267.60457183  .00000003  00000+0  00000+0 0  9993
2 43208  56.7420  59.8807 0005124 344.0966  15.9030  1.86231359 58597
O3B FM13
1 43234U 18024D   26268.59685369 -.00000016  00000+0  00000+0 0  9992
2 43234   0.0553 341.8738 0000746 134.2079 243.9305  5.00115813156077
GSAT0222 (GALILEO 26)
1 43565U 18060B   26266.83081615 -.00000072  00000+0  00000+0 0  9990
2 43565  57.1328 339.1203 0004544 241.1728 118.8453  1.70476245 50892
BEIDOU-3 M6
1 43582U 18062B   26267.84479610  .00000009  00000+0  00000+0 0  9998
2 43582  54.0814 178.9071 0006682  33.7288 326.3454  1.86228218 55490
BEIDOU-3 M16
1 43647U 18078A   26267.35498237 -.00000009  00000+0  00000+0 0  9990
2 43647  53.9978 296.4994 0006127  30.1955 329.9039  1.86232407 54006
BEIDOU-3 M18
1 43707U 18093B   26265.90091979 -.00000014  00000+0  00000+0 0  9991
2 43707  54.1661 178.9759 0007282 340.8886  19.1067  1.86226745 53359
O3B FM18
1 44115U 19020D   26268.81048256 -.00000016  00000+0  00000+0 0  9991
2 44115   0.0543 353.0088 0002742 192.4200 174.5729  5.00115459136688
BEIDOU-3 M24
1 44542U 19061A   26266.50572373 -.00000008  00000+0  00000+0 0  9997
2 44542  54.4306 179.4090 0020747  95.6918 264.5686  1.86175926 47622
BEIDOU-3 M19
1 44864U 19090A   26267.81158191  .00000002  00000+0  00000+0 0  9992
2 44864  56.6505  59.5041 0015782 291.0923  75.7966  1.86231614 46099
COSMOS 2547 [GLONASS-K]
1 46805U 20075A   26267.89787701  .00000008  00000+0  00000+0 0  9993
2 46805  64.6005 189.1502 0008276 235.3903 124.5480  2.13099917 46038
GSAT0224 (GALILEO 28)
1 49810U 21116B   26268.69962216 -.00000066  00000+0  00000+0 0  9999
2 49810  57.1203 338.9593 0003846 231.3014 128.0413  1.70476289 29911
SKIF-D
1 54153U 22139D   26267.98634050  .00000055  00000+0  00000+0 0  9991
2 54153  89.9439  96.6306 0007808 161.1176 198.9835  5.00426847 69103
NAVSTAR 82 (USA 343)
1 55268U 23009A   26268.64583333  .00000053  00000+0  00000+0 0  9995
2 55268  55.1285 144.5680 0005596 331.7328  13.0735  2.00564765 27254
O3B MPOWER F5
1 58346U 23175A   26267.45419679 -.00000018  00000+0  00000+0 0  9990
2 58346   0.0611   3.0930 0006339 195.9757 160.9116  5.00115631 54392
GSAT0225 (GALILEO 29)
1 59598U 24079A   26267.83497654  .00000058  00000+0  00000+0 0  9998
2 59598  55.1857  98.2943 0001711 134.9226  46.9078  1.70474357 15010
GSAT0226 (GALILEO 31)
1 61183U 24167B   26267.50980193  .00000010  00000+0  00000+0 0  9996
2 61183  55.1614 218.5981 0002070 245.6634 290.9535  1.70473520 12540
O3B MPOWER F7
1 62362U 24244A   26268.82047038 -.00000016  00000+0  00000+0 0  9997
2 62362   0.0570 334.1189 0005691 205.9297 179.9560  5.00115327 31552
O3B MPOWER F10
1 64867U 25153B   26268.48705464 -.00000016  00000+0  00000+0 0  9995
2 64867   0.0624 354.6208 0004995 278.6318  86.6948  5.00114842 27055
YAOGAN-46
1 66313U 25250A   26268.24922406 -.00000017  00000+0  00000+0 0  9993
2 66313  20.0543 276.0114 0005235 270.2556  89.6963  5.31209603 17411
LES-5
1 02866U 67066E   26268.69768545 -.00000113  00000+0  00000+0 0  9995
2 02866   2.8515  93.4436 0052278 214.9554  25.7911  1.09426273132137
USA 134
1 25019U 97065A   26268.88606250 -.00000053  00000+0  00000+0 0  9990
2 25019  12.9031  20.9438 0003283 259.2582 291.1700  1.00268643 33961
USA 164 (MILSTAR-2 3)
1 27168U 02001A   26268.62778220  .00000105  00000+0  00000+0 0  9999
2 27168  11.3001  21.2702 0097896  10.3248 217.7885  1.00273352 33965
USA 170
1 27875U 03040A   26267.84616230  .00000134  00000+0  00000+0 0  9995
2 27875  10.7070  46.9710 0002006 168.3767 117.0647  1.00273895 33994
THAICOM 4
1 28786U 05028A   26268.85917841 -.00000359  00000+0  00000+0 0  9999
2 28786   0.4977  84.3476 0000277  84.9477 264.1776  1.00272395 53254
KOREASAT 5 (MUGUNGWHA 5)
1 29349U 06034A   26268.92961571 -.00000353  00000+0  00000+0 0  9994
2 29349   2.0360  81.5560 0001795 153.4966 217.4448  1.00272933 42330
HORIZONS-2
1 32388U 07063B   26268.89373167 -.00000249  00000+0  00000+0 0  9992
2 32388   2.8536  79.2929 0001752 118.3104  55.0931  1.00273195 68826
ECHOSTAR 11
1 33207U 08035A   26268.88658250 -.00000054  00000+0  00000+0 0  9995
2 33207   1.2575  82.8076 0002511  90.6518  40.6443  1.00271412 52226
EWS-G3 (GOES 14)
1 35491U 09033A   26268.83416296 -.00000040  00000+0  00000+0 0  9993
2 35491   1.9419  81.6038 0002267 103.4503 195.0859  1.00070265  7596
INTELSAT 15 (IS-15)
1 36106U 09067A   26268.88840306  .00000000  00000+0  00000+0 0  9997
2 36106   0.0211 198.0031 0002648   5.9605 205.7126  1.00268695 42230
ARABSAT-5A
1 36745U 10032B   26268.62928068  .00000156  00000+0  00000+0 0  9996
2 36745   0.2910  77.4323 0003997 105.1589  78.9519  1.00275919 59650
EUTELSAT KA-SAT 9A
1 37258U 10069A   26268.69627431  .00000064  00000+0  00000+0 0  9991
2 37258   0.0764 355.3528 0005213 165.7789 103.0549  1.00273040 45018
ASTRA 1N
1 37775U 11041A   26268.84082230  .00000123  00000+0  00000+0 0  9991
2 37775   0.0880  35.0311 0004621 122.8219 168.7076  1.00272536 45536
WGS F4 (USA 233)
1 38070U 12003A   26268.85451569 -.00000212  00000+0  00000+0 0  9995
2 38070   0.0145 169.5617 0000089 184.9306  46.2387  1.00271763 45155
ECHOSTAR 17
1 38551U 12035A   26268.60198057 -.00000073  00000+0  00000+0 0  9992
2 38551   0.0200 140.9730 0002187  53.8707 279.2185  1.00270987 52070
EUTELSAT 21B
1 38992U 12062B   26268.69878765  .00000132  00000+0  00000+0 0  9996
2 38992   0.0703 349.8272 0002976 185.1479 102.7244  1.00269475 50837
ZHONGXING-11
1 39157U 13020A   26268.92770514 -.00000288  00000+0  00000+0 0  9997
2 39157   0.0424 337.6692 0001174 145.9096 313.0516  1.00274672 48909
ASTRA 2E
1 39285U 13056A   26268.48619340  .00000152  00000+0  00000+0 0  9997
2 39285   0.0867 308.2608 0002154 236.1423  23.4234  1.00271622 47426
EXPRESS-AT1
1 39612U 14010A   26268.92354512 -.00000112  00000+0  00000+0 0  9995
2 39612   0.5095  84.3375 0004949  84.7760 244.9987  1.00315529 45828
IRNSS-1C
1 40269U 14061A   26268.65974354 -.00000153  00000+0  00000+0 0  9998
2 40269   6.7684  86.9946 0019731  10.4520 227.5230  1.00269138 43692
EXPRESS-AM7
1 40505U 15012A   26268.77475451  .00000153  00000+0  00000+0 0  9994
2 40505   0.0198 145.6107 0003320  47.6645 130.2357  1.00272448 42014
MUOS-4
1 40887U 15044A   26268.82143244 -.00000087  00000+0  00000+0 0  9997
2 40887   4.5181  42.6746 0052347   3.3718 329.3111  1.00272017 40565
TELSTAR 12V
1 41036U 15068A   26268.76283459  .00000000  00000+0  00000+0 0  9990
2 41036   0.0236 168.6725 0002293  23.1228  72.4101  1.00269608 39634
IRNSS-1G
1 41469U 16027A   26268.86466417 -.00000327  00000+0  00000+0 0  9997
2 41469   5.4401  95.1315 0002626  44.0131 306.3291  1.00275349 38188
USA 271
1 41745U 16052B   26266.77178389 -.00000120  00000+0  00000+0 0  9999
2 41745   4.4182  75.9548 0002975 174.4331  39.0999  0.99064014 28907
STAR ONE D1
1 41904U 16082B   26268.88516804 -.00000208  00000+0  00000+0 0  9998
2 41904   0.0155 219.8840 0002148 318.1973  61.3008  1.00272996 35787
INMARSAT 5-F4
1 42698U 17025A   26268.75947631  .00000000  00000+0  00000+0 0  9998
2 42698   0.0228 179.5751 0000559  21.6418 133.2714  1.00273018 34289
QZS-3 (MICHIBIKI-3)
1 42917U 17048A   26268.86269699 -.00000345  00000+0  00000+0 0  9993
2 42917   0.0686 136.1403 0001582  37.0263 269.1109  1.00267866 33268
HISPASAT 30W-6
1 43228U 18023A   26268.90239836 -.00000213  00000+0  00000+0 0  9992
2 43228   0.0581  25.2915 0002900 129.3544 144.9604  1.00272796 31419
TELSTAR 19V
1 43562U 18059A   26268.89581167 -.00000277  00000+0  00000+0 0  9997
2 43562   0.0111 190.1806 0002879 353.0908  80.9424  1.00267669 30157
TJS-3
1 43874U 18110A   26268.71818308  .00000050  00000+0  00000+0 0  9990
2 43874   2.7956  79.1762 0004471 142.5037 216.0817  1.00454214 28429
AT&T T-16
1 44333U 19034A   26268.88831584 -.00000113  00000+0  00000+0 0  9997
2 44333   0.0126 122.8715 0000397 304.3818 156.4137  1.00273499 26640
INMARSAT GX5
1 44801U 19080B   26268.69670764  .00000000  00000+0  00000+0 0  9992
2 44801   0.0118 342.3979 0002007 220.2186  63.7252  1.00268483  7796
KOREASAT 116
1 45920U 20048A   26268.72559553 -.00000359  00000+0  00000+0 0  9995
2 45920   0.0277 265.1896 0001440 292.2426 184.5168  1.00267864 22642
TIANTONG-1 3
1 47321U 21003A   26268.65558226 -.00000154  00000+0  00000+0 0  9995
2 47321   1.6990 345.9129 0003558 216.6011 119.5241  1.00272395 20964
SES-17
1 49332U 21095A   26268.89503167 -.00000270  00000+0  00000+0 0  9999
2 49332   0.0442  21.3433 0001069 163.3861  75.1150  1.00270239 18869
ASCENT
1 51287U 21118E   26265.13132673  .00000084  00000+0  00000+0 0  9993
2 51287   4.4122  75.9275 0008563 127.1208 233.2625  1.01228443 17305
SES-21
1 53961U 22123B   26268.59730054  .00000071  00000+0  00000+0 0  9997
2 53961   0.0343  63.4106 0001261 112.2116 272.8402  1.00273741  8211
METEOSAT-12 (MTG-I1)
1 54743U 22170C   26268.90820505 -.00000005  00000+0  00000+0 0  9992
2 54743   0.7436  20.8651 0003510  95.7409 214.6510  1.00273662 13987
INTELSAT 40E (IS-40E)
1 56174U 23052A   26268.32007628 -.00000173  00000+0  00000+0 0  9997
2 56174   0.0100 191.9538 0002664 355.5081 200.9354  1.00272731 12826
TJS-10
1 58204U 23169A   26268.64150073 -.00000245  00000+0  00000+0 0  9990
2 58204   2.7951  79.1846 0004535 135.3124 113.3655  1.00271463 10544
ZHONGXING-3A
1 60179U 24122A   26268.80791338 -.00000311  00000+0  00000+0 0  9991
2 60179   0.0062 239.8618 0002785 332.4706 184.7311  1.00271836  8312
NUVIEW BRAVO
1 62457U 24252D   26268.89186919 -.00000213  00000+0  00000+0 0  9999
2 62457   0.0623 164.9434 0001675  28.5873  49.1765  1.00274450  4807
CHINASAT 3B
1 64062U 25106A   26268.83307263 -.00000043  00000+0  00000+0 0  9994
2 64062   0.0076 295.0482 0002736 267.0725 269.7505  1.00270934  5072
TJS-22
1 66990U 25290A   26268.75391863 -.00000007  00000+0  00000+0 0  9990
2 66990   1.2935 288.5066 0004521 324.0041  89.9774  1.00273536  3030
PHASE 3B (AO-10)
1 14129U 83058B   26263.04235857 -.00000060  00000+0  00000+0 0  9999
2 14129  25.9788 204.0605 5980330 141.6651 281.5604  2.05869937297448
POLAR
1 23802U 96013A   26267.39873342  .00000128  00000+0  00000+0 0  9995
2 23802  80.0093 225.8604 6564900 205.6498  97.0100  1.29845802146140
CXO
1 25867U 99040B   26267.22283988  .00001017  00000+0  00000+0 0  9992
2 25867  57.5064 114.1177 7686103 309.2542   0.4828  0.37800426 17690
XMM-NEWTON
1 25989U 99066A   26269.07810877  .00000180  00000+0  00000+0 0  9993
2 25989  63.9616 281.6787 4648581  63.1030   0.1095  0.50121727 23515
IMAGE
1 26113U 00017A   26264.91806119  .00000172  00000+0  00000+0 0  9994
2 26113  94.2875 316.5791 7371254 277.0222  12.1434  1.68668537163132
THEMIS A
1 30580U 07004A   26268.53052934 -.00000180  00000+0  00000+0 0  9990
2 30580   9.3982 100.9457 8330868 218.8887  35.0144  0.87844155 42165
THEMIS D
1 30797U 07004D   26268.86311142 -.00000235  00000+0  00000+0 0  9996
2 30797   8.2659  74.4489 8302773 247.6146  16.9543  0.87844436 41966
THEMIS E
1 30798U 07004E   26268.13538887 -.00000299  00000+0  00000+0 0  9994
2 30798   7.1580  90.5188 8415424 235.2150  34.7640  0.87839580 66809
TACSAT 4
1 37818U 11052A   26266.66202921  .00001269  00000+0  47912-3 0  9999
2 37818  62.8487  52.3147 4628950 286.8155  28.6520  6.15766630330857
MERIDIAN 7
1 40296U 14069A   26267.88431781  .00000245  00000+0  00000+0 0  9993
2 40296  63.4472 205.6423 6613616 269.8781  20.2463  2.00606304 87239
MMS 1
1 40482U 15011A   26269.00002315 -.00001354  00000+0  00000+0 0  9994
2 40482  73.1122 347.6401 8251006 169.6700 142.5589  0.28308244  1389
MMS 2
1 40483U 15011B   26269.00002315 -.00001354  00000+0  00000+0 0  9995
2 40483  73.1240 347.6375 8254530 169.6689 142.5485  0.28309948  1389
MMS 3
1 40484U 15011C   26269.00002315 -.00001355  00000+0  00000+0 0  9997
2 40484  73.1232 347.6496 8252903 169.6775 142.5231  0.28309936  1389
MMS 4
1 40485U 15011D   26269.00002315 -.00001354  00000+0  00000+0 0  9997
2 40485  73.1166 347.6337 8253007 169.6874 142.5171  0.28309926  1388
COSMOS 2510 (EKS 1)
1 41032U 15066A   26268.05557484 -.00001205  00000+0  00000+0 0  9997
2 41032  63.4396 332.4104 7190567 274.9226  13.9527  2.00638048 79472
ARASE (ERG)
1 41896U 16080A   26267.25661684  .00000113  00000+0  16149-3 0  9992
2 41896  31.9444 329.2747 6982799 107.2232 334.8969  2.57787951 90839
COSMOS 2518 (EKS 2)
1 42719U 17027A   26267.71114259  .00000154  00000+0  00000+0 0  9991
2 42719  63.0160 236.6479 6919005 273.9310  16.1383  2.00740671 68400
PODSAT
1 43229U 18023B   26268.92566208  .00085806 -57200-6  70355-3 0  9997
2 43229  26.8349 239.8521 3413571 161.5955 214.6913  8.70449594201492
TESS
1 43435U 18038A   26264.61819158 -.00000879  00000+0  00000+0 0  9991
2 43435  56.2338  32.1610 4943752  64.1731  11.1423  0.07023037  1923
MERIDIAN 8
1 44453U 19046A   26268.41666102  .00000206  00000+0  00000+0 0  9996
2 44453  63.2197  37.7122 7100525 275.0793  14.6046  2.00612785 52352
COSMOS 2541 (EKS 3)
1 44552U 19065A   26268.47277513  .00000148  00000+0  00000+0 0  9992
2 44552  62.7106 147.5915 6510376 272.0500  20.2652  2.00577658 51238
MERIDIAN 9
1 45254U 20015A   26268.66189314 -.00000023  00000+0  00000+0 0  9994
2 45254  65.5435 308.4471 6827623 276.2137  16.1488  2.00617018 48307
COSMOS 2546 (EKS 4)
1 45608U 20031A   26243.29559994 -.00000360  00000+0  00000+0 0  9996
2 45608  63.1638  56.8572 7115327 266.6524  17.3178  2.00576418 45977
SHIYAN-10 01 (SY-10 01)
1 49258U 21087A   26266.60540307  .00000666  00000+0  00000+0 0  9999
2 49258  63.1356 208.9410 6882564 269.7038  18.0316  2.00600856 36502
COSMOS 2552 (EKS 5)
1 49503U 21113A   26265.14339825 -.00000135  00000+0  00000+0 0  9993
2 49503  62.8244 198.6797 6402572 272.3818  20.9817  2.00583124 35340
MERIDIAN 10
1 52145U 22030A   26267.66732154  .00000176  00000+0  00000+0 0  9993
2 52145  62.6797 129.9959 6812838 272.8167  17.4791  2.00592678 33025
COSMOS 2563 (EKS 6)
1 54223U 22145A   26267.87653640 -.00001060  00000+0  00000+0 0  9998
2 54223  63.1577 268.1842 6993574 269.9816  16.9410  2.00601156 28565
SHIYAN-10 02 (SY-10 02)
1 54878U 22178A   26256.88096953  .00000837  00000+0  00000+0 0  9997
2 54878  64.0134 310.3824 6904856 267.6534  18.6662  2.00653885 18335
ASBM-1
1 60422U 24143A   26264.22422334 -.00000016  00000+0  00000+0 0  9996
2 60422  62.9327  41.6965 5644561 269.4461  29.3625  1.50427306 13064
ASBM-2
1 60423U 24143B   26258.57434434 -.00000072  00000+0  00000+0 0  9994
2 60423  62.8936  41.9938 5640686 269.4595  29.3828  1.50425879 12961
TJS-13
1 62188U 24227A   26262.60881056  .00000518  00000+0  00000+0 0  9996
2 62188  63.8372  27.5816 6979521 269.4012  17.4561  2.00626286 13143
PROBA-3 CSC
1 62256U 24233A   26268.23213787  .00000083  00000+0  00000+0 0  9991
2 62256  59.8066  89.1569 7995228 208.3324  62.0010  1.22077883  8048
PROBA-3 OSC
1 62258U 24233C   26268.23214285  .00000083  00000+0  00000+0 0  9997
2 62258  59.8093  89.1546 7995097 208.3337  62.0009  1.22077748  8030
ASTRANIS UTILITYSAT
1 62454U 24252A   26266.78501598 -.00000210  00000+0  00000+0 0  9993
2 62454   9.1454 324.1280 7553419 263.8650  14.1409  1.00303534  6419
COSMOS 2590
1 64527U 25131D   26267.07441584 -.00000129  00000+0  00000+0 0  9993
2 64527   0.8474  82.7750 3639100  20.0876   8.6610  1.00212988  4605
MERIDIAN-M 21L
1 68571U 26071A   26268.90378411  .00000145  00000+0  00000+0 0  9998
2 68571  62.8364 215.5456 7112314 285.5010  11.4565  2.00607803  3535
SMILE
1 69123U 26109A   26264.43550021  .00000584  00000+0  00000+0 0  9994
2 69123  69.9966 206.2745 8159926 285.6346   5.6307  0.47516760   409
SHIJIAN-31 (SJ-31)
1 69570U 26136A   26268.37706824 -.00000277  00000+0  00000+0 0  9991
2 69570  63.4830 345.7602 6935905 172.0539 211.3066  1.92225515  2018
